{
  "type": "FeatureCollection",
  "name": "building_footprints_design",
  "features": [
    {
      "type": "Feature",
      "id": "BLDG-001",
      "properties": {
        "id": "BLDG-001",
        "layer": "BUILDING_FOOTPRINT",
        "source_type": "agent_generated_design",
        "confidence": "medium",
        "geometry_role": "design_proposal",
        "building_type": "ai_r_and_d",
        "name_zh": "AI研发示范建筑基底",
        "action": "new_build",
        "area_sqm_declared": 310807.2
      },
      "geometry": {
        "type": "Polygon",
        "coordinates": [
          [
            [
              116.341572,
              39.95475
            ],
            [
              116.341572,
              39.97225
            ],
            [
              116.343444,
              39.97225
            ],
            [
              116.343444,
              39.95475
            ],
            [
              116.341572,
              39.95475
            ]
          ]
        ]
      }
    },
    {
      "type": "Feature",
      "id": "BLDG-002",
      "properties": {
        "id": "BLDG-002",
        "layer": "BUILDING_FOOTPRINT",
        "source_type": "agent_generated_design",
        "confidence": "medium",
        "geometry_role": "design_proposal",
        "building_type": "incubator",
        "name_zh": "众智园孵化加速器",
        "action": "new_build",
        "area_sqm_declared": 227531.7,
        "key_area_ref": "PROV-KEY-001"
      },
      "geometry": {
        "type": "Polygon",
        "coordinates": [
          [
            [
              116.3445,
              40.01
            ],
            [
              116.3445,
              40.018
            ],
            [
              116.3475,
              40.018
            ],
            [
              116.3475,
              40.01
            ],
            [
              116.3445,
              40.01
            ]
          ]
        ]
      }
    },
    {
      "type": "Feature",
      "id": "BLDG-003",
      "properties": {
        "id": "BLDG-003",
        "layer": "BUILDING_FOOTPRINT",
        "source_type": "agent_generated_design",
        "confidence": "medium",
        "geometry_role": "design_proposal",
        "building_type": "mixed_use",
        "name_zh": "AI原点社区成果转化综合体",
        "action": "renovate",
        "area_sqm_declared": 265551.3,
        "key_area_ref": "PROV-KEY-002"
      },
      "geometry": {
        "type": "Polygon",
        "coordinates": [
          [
            [
              116.344,
              39.985
            ],
            [
              116.344,
              39.992
            ],
            [
              116.348,
              39.992
            ],
            [
              116.348,
              39.985
            ],
            [
              116.344,
              39.985
            ]
          ]
        ]
      }
    },
    {
      "type": "Feature",
      "id": "BLDG-004",
      "properties": {
        "id": "BLDG-004",
        "layer": "BUILDING_FOOTPRINT",
        "source_type": "agent_generated_design",
        "confidence": "medium",
        "geometry_role": "design_proposal",
        "building_type": "office",
        "name_zh": "大钟寺AI企业总部",
        "action": "renovate",
        "area_sqm_declared": 189792.9,
        "key_area_ref": "PROV-KEY-003"
      },
      "geometry": {
        "type": "Polygon",
        "coordinates": [
          [
            [
              116.344,
              39.945
            ],
            [
              116.344,
              39.949
            ],
            [
              116.349,
              39.949
            ],
            [
              116.349,
              39.945
            ],
            [
              116.344,
              39.945
            ]
          ]
        ]
      }
    },
    {
      "type": "Feature",
      "id": "BLDG-005",
      "properties": {
        "id": "BLDG-005",
        "layer": "BUILDING_FOOTPRINT",
        "source_type": "agent_generated_design",
        "confidence": "medium",
        "geometry_role": "design_proposal",
        "building_type": "cultural",
        "name_zh": "京张AI文化体验馆（清华园车站旧址旁）",
        "action": "new_build",
        "area_sqm_declared": 75889.8
      },
      "geometry": {
        "type": "Polygon",
        "coordinates": [
          [
            [
              116.346,
              39.97
            ],
            [
              116.346,
              39.974
            ],
            [
              116.348,
              39.974
            ],
            [
              116.348,
              39.97
            ],
            [
              116.346,
              39.97
            ]
          ]
        ]
      }
    },
    {
      "type": "Feature",
      "id": "BLDG-006",
      "properties": {
        "id": "BLDG-006",
        "layer": "BUILDING_FOOTPRINT",
        "source_type": "agent_generated_design",
        "confidence": "medium",
        "geometry_role": "design_proposal",
        "building_type": "talent_apartment",
        "name_zh": "AI人才公寓（近校配套）",
        "action": "new_build",
        "area_sqm_declared": 142259.5,
        "key_area_ref": "PROV-KEY-002"
      },
      "geometry": {
        "type": "Polygon",
        "coordinates": [
          [
            [
              116.349,
              39.986
            ],
            [
              116.349,
              39.991
            ],
            [
              116.352,
              39.991
            ],
            [
              116.352,
              39.986
            ],
            [
              116.349,
              39.986
            ]
          ]
        ]
      }
    },
    {
      "type": "Feature",
      "id": "BLDG-007",
      "properties": {
        "id": "BLDG-007",
        "layer": "BUILDING_FOOTPRINT",
        "source_type": "agent_generated_design",
        "confidence": "medium",
        "geometry_role": "design_proposal",
        "building_type": "ai_r_and_d",
        "name_zh": "众智园AI算力中心",
        "action": "new_build",
        "area_sqm_declared": 85322.5
      },
      "geometry": {
        "type": "Polygon",
        "coordinates": [
          [
            [
              116.349,
              40.014
            ],
            [
              116.349,
              40.017
            ],
            [
              116.346,
              40.017
            ],
            [
              116.346,
              40.014
            ],
            [
              116.349,
              40.014
            ]
          ]
        ]
      }
    },
    {
      "type": "Feature",
      "id": "BLDG-008",
      "properties": {
        "id": "BLDG-008",
        "layer": "BUILDING_FOOTPRINT",
        "source_type": "agent_generated_design",
        "confidence": "medium",
        "geometry_role": "design_proposal",
        "building_type": "incubator",
        "name_zh": "众智园机器人中试车间",
        "action": "new_build",
        "area_sqm_declared": 113765.7
      },
      "geometry": {
        "type": "Polygon",
        "coordinates": [
          [
            [
              116.353,
              40.012
            ],
            [
              116.353,
              40.016
            ],
            [
              116.35,
              40.016
            ],
            [
              116.35,
              40.012
            ],
            [
              116.353,
              40.012
            ]
          ]
        ]
      }
    },
    {
      "type": "Feature",
      "id": "BLDG-009",
      "properties": {
        "id": "BLDG-009",
        "layer": "BUILDING_FOOTPRINT",
        "source_type": "agent_generated_design",
        "confidence": "medium",
        "geometry_role": "design_proposal",
        "building_type": "talent_apartment",
        "name_zh": "众智园人才公寓北楼",
        "action": "new_build",
        "area_sqm_declared": 113752.8
      },
      "geometry": {
        "type": "Polygon",
        "coordinates": [
          [
            [
              116.347,
              40.02
            ],
            [
              116.347,
              40.024
            ],
            [
              116.344,
              40.024
            ],
            [
              116.344,
              40.02
            ],
            [
              116.347,
              40.02
            ]
          ]
        ]
      }
    },
    {
      "type": "Feature",
      "id": "BLDG-010",
      "properties": {
        "id": "BLDG-010",
        "layer": "BUILDING_FOOTPRINT",
        "source_type": "agent_generated_design",
        "confidence": "medium",
        "geometry_role": "design_proposal",
        "building_type": "lab",
        "name_zh": "众智园开源模型实验室",
        "action": "new_build",
        "area_sqm_declared": 85316.3
      },
      "geometry": {
        "type": "Polygon",
        "coordinates": [
          [
            [
              116.351,
              40.019
            ],
            [
              116.351,
              40.022
            ],
            [
              116.348,
              40.022
            ],
            [
              116.348,
              40.019
            ],
            [
              116.351,
              40.019
            ]
          ]
        ]
      }
    },
    {
      "type": "Feature",
      "id": "BLDG-011",
      "properties": {
        "id": "BLDG-011",
        "layer": "BUILDING_FOOTPRINT",
        "source_type": "agent_generated_design",
        "confidence": "medium",
        "geometry_role": "design_proposal",
        "building_type": "mixed_use",
        "name_zh": "众智园产研复合体A",
        "action": "new_build",
        "area_sqm_declared": 85328.7
      },
      "geometry": {
        "type": "Polygon",
        "coordinates": [
          [
            [
              116.348,
              40.009
            ],
            [
              116.348,
              40.012
            ],
            [
              116.345,
              40.012
            ],
            [
              116.345,
              40.009
            ],
            [
              116.348,
              40.009
            ]
          ]
        ]
      }
    },
    {
      "type": "Feature",
      "id": "BLDG-012",
      "properties": {
        "id": "BLDG-012",
        "layer": "BUILDING_FOOTPRINT",
        "source_type": "agent_generated_design",
        "confidence": "medium",
        "geometry_role": "design_proposal",
        "building_type": "community_service",
        "name_zh": "众智园社区服务中心",
        "action": "new_build",
        "area_sqm_declared": 56880.8
      },
      "geometry": {
        "type": "Polygon",
        "coordinates": [
          [
            [
              116.354,
              40.015
            ],
            [
              116.354,
              40.018
            ],
            [
              116.352,
              40.018
            ],
            [
              116.352,
              40.015
            ],
            [
              116.354,
              40.015
            ]
          ]
        ]
      }
    },
    {
      "type": "Feature",
      "id": "BLDG-013",
      "properties": {
        "id": "BLDG-013",
        "layer": "BUILDING_FOOTPRINT",
        "source_type": "agent_generated_design",
        "confidence": "medium",
        "geometry_role": "design_proposal",
        "building_type": "ai_r_and_d",
        "name_zh": "原点社区AI研发旗舰",
        "action": "new_build",
        "area_sqm_declared": 142261.6
      },
      "geometry": {
        "type": "Polygon",
        "coordinates": [
          [
            [
              116.349,
              39.985
            ],
            [
              116.349,
              39.99
            ],
            [
              116.346,
              39.99
            ],
            [
              116.346,
              39.985
            ],
            [
              116.349,
              39.985
            ]
          ]
        ]
      }
    },
    {
      "type": "Feature",
      "id": "BLDG-014",
      "properties": {
        "id": "BLDG-014",
        "layer": "BUILDING_FOOTPRINT",
        "source_type": "agent_generated_design",
        "confidence": "medium",
        "geometry_role": "design_proposal",
        "building_type": "cultural",
        "name_zh": "原点社区开源文化中心",
        "action": "new_build",
        "area_sqm_declared": 113814.9
      },
      "geometry": {
        "type": "Polygon",
        "coordinates": [
          [
            [
              116.353,
              39.982
            ],
            [
              116.353,
              39.986
            ],
            [
              116.35,
              39.986
            ],
            [
              116.35,
              39.982
            ],
            [
              116.353,
              39.982
            ]
          ]
        ]
      }
    },
    {
      "type": "Feature",
      "id": "BLDG-015",
      "properties": {
        "id": "BLDG-015",
        "layer": "BUILDING_FOOTPRINT",
        "source_type": "agent_generated_design",
        "confidence": "medium",
        "geometry_role": "design_proposal",
        "building_type": "education",
        "name_zh": "原点社区产学研共享厅",
        "action": "new_build",
        "area_sqm_declared": 113798.7
      },
      "geometry": {
        "type": "Polygon",
        "coordinates": [
          [
            [
              116.348,
              39.992
            ],
            [
              116.348,
              39.996
            ],
            [
              116.345,
              39.996
            ],
            [
              116.345,
              39.992
            ],
            [
              116.348,
              39.992
            ]
          ]
        ]
      }
    },
    {
      "type": "Feature",
      "id": "BLDG-016",
      "properties": {
        "id": "BLDG-016",
        "layer": "BUILDING_FOOTPRINT",
        "source_type": "agent_generated_design",
        "confidence": "medium",
        "geometry_role": "design_proposal",
        "building_type": "retail",
        "name_zh": "原点社区AI生活体验街",
        "action": "new_build",
        "area_sqm_declared": 113805.2
      },
      "geometry": {
        "type": "Polygon",
        "coordinates": [
          [
            [
              116.346,
              39.988
            ],
            [
              116.349,
              39.988
            ],
            [
              116.349,
              39.992
            ],
            [
              116.346,
              39.992
            ],
            [
              116.346,
              39.988
            ]
          ]
        ]
      }
    },
    {
      "type": "Feature",
      "id": "BLDG-017",
      "properties": {
        "id": "BLDG-017",
        "layer": "BUILDING_FOOTPRINT",
        "source_type": "agent_generated_design",
        "confidence": "medium",
        "geometry_role": "design_proposal",
        "building_type": "mixed_use",
        "name_zh": "原点社区混合创享体",
        "action": "new_build",
        "area_sqm_declared": 113793.7
      },
      "geometry": {
        "type": "Polygon",
        "coordinates": [
          [
            [
              116.35,
              39.995
            ],
            [
              116.35,
              39.999
            ],
            [
              116.347,
              39.999
            ],
            [
              116.347,
              39.995
            ],
            [
              116.35,
              39.995
            ]
          ]
        ]
      }
    },
    {
      "type": "Feature",
      "id": "BLDG-018",
      "properties": {
        "id": "BLDG-018",
        "layer": "BUILDING_FOOTPRINT",
        "source_type": "agent_generated_design",
        "confidence": "medium",
        "geometry_role": "design_proposal",
        "building_type": "talent_apartment",
        "name_zh": "原点社区青年公寓",
        "action": "new_build",
        "area_sqm_declared": 113795.3
      },
      "geometry": {
        "type": "Polygon",
        "coordinates": [
          [
            [
              116.347,
              39.994
            ],
            [
              116.35,
              39.994
            ],
            [
              116.35,
              39.998
            ],
            [
              116.347,
              39.998
            ],
            [
              116.347,
              39.994
            ]
          ]
        ]
      }
    },
    {
      "type": "Feature",
      "id": "BLDG-019",
      "properties": {
        "id": "BLDG-019",
        "layer": "BUILDING_FOOTPRINT",
        "source_type": "agent_generated_design",
        "confidence": "medium",
        "geometry_role": "design_proposal",
        "building_type": "office",
        "name_zh": "大钟寺AI企业总部B",
        "action": "new_build",
        "area_sqm_declared": 113847.8
      },
      "geometry": {
        "type": "Polygon",
        "coordinates": [
          [
            [
              116.349,
              39.962
            ],
            [
              116.349,
              39.966
            ],
            [
              116.346,
              39.966
            ],
            [
              116.346,
              39.962
            ],
            [
              116.349,
              39.962
            ]
          ]
        ]
      }
    },
    {
      "type": "Feature",
      "id": "BLDG-020",
      "properties": {
        "id": "BLDG-020",
        "layer": "BUILDING_FOOTPRINT",
        "source_type": "agent_generated_design",
        "confidence": "medium",
        "geometry_role": "design_proposal",
        "building_type": "office",
        "name_zh": "大钟寺AI加速器C",
        "action": "new_build",
        "area_sqm_declared": 113851.0
      },
      "geometry": {
        "type": "Polygon",
        "coordinates": [
          [
            [
              116.353,
              39.96
            ],
            [
              116.353,
              39.964
            ],
            [
              116.35,
              39.964
            ],
            [
              116.35,
              39.96
            ],
            [
              116.353,
              39.96
            ]
          ]
        ]
      }
    },
    {
      "type": "Feature",
      "id": "BLDG-021",
      "properties": {
        "id": "BLDG-021",
        "layer": "BUILDING_FOOTPRINT",
        "source_type": "agent_generated_design",
        "confidence": "medium",
        "geometry_role": "design_proposal",
        "building_type": "mixed_use",
        "name_zh": "大钟寺产商融合体",
        "action": "new_build",
        "area_sqm_declared": 113838.0
      },
      "geometry": {
        "type": "Polygon",
        "coordinates": [
          [
            [
              116.35,
              39.968
            ],
            [
              116.35,
              39.972
            ],
            [
              116.347,
              39.972
            ],
            [
              116.347,
              39.968
            ],
            [
              116.35,
              39.968
            ]
          ]
        ]
      }
    },
    {
      "type": "Feature",
      "id": "BLDG-022",
      "properties": {
        "id": "BLDG-022",
        "layer": "BUILDING_FOOTPRINT",
        "source_type": "agent_generated_design",
        "confidence": "medium",
        "geometry_role": "design_proposal",
        "building_type": "cultural",
        "name_zh": "大钟寺AI展演中心",
        "action": "new_build",
        "area_sqm_declared": 142302.5
      },
      "geometry": {
        "type": "Polygon",
        "coordinates": [
          [
            [
              116.354,
              39.965
            ],
            [
              116.354,
              39.97
            ],
            [
              116.351,
              39.97
            ],
            [
              116.351,
              39.965
            ],
            [
              116.354,
              39.965
            ]
          ]
        ]
      }
    },
    {
      "type": "Feature",
      "id": "BLDG-023",
      "properties": {
        "id": "BLDG-023",
        "layer": "BUILDING_FOOTPRINT",
        "source_type": "agent_generated_design",
        "confidence": "medium",
        "geometry_role": "design_proposal",
        "building_type": "retail",
        "name_zh": "大钟寺智慧商业体验馆",
        "action": "new_build",
        "area_sqm_declared": 113854.4
      },
      "geometry": {
        "type": "Polygon",
        "coordinates": [
          [
            [
              116.348,
              39.958
            ],
            [
              116.348,
              39.962
            ],
            [
              116.345,
              39.962
            ],
            [
              116.345,
              39.958
            ],
            [
              116.348,
              39.958
            ]
          ]
        ]
      }
    },
    {
      "type": "Feature",
      "id": "BLDG-024",
      "properties": {
        "id": "BLDG-024",
        "layer": "BUILDING_FOOTPRINT",
        "source_type": "agent_generated_design",
        "confidence": "medium",
        "geometry_role": "design_proposal",
        "building_type": "community_service",
        "name_zh": "大钟寺社区健康服务站",
        "action": "new_build",
        "area_sqm_declared": 113854.2
      },
      "geometry": {
        "type": "Polygon",
        "coordinates": [
          [
            [
              116.355,
              39.958
            ],
            [
              116.355,
              39.962
            ],
            [
              116.352,
              39.962
            ],
            [
              116.352,
              39.958
            ],
            [
              116.355,
              39.958
            ]
          ]
        ]
      }
    }
  ]
}
