{
  "type": "FeatureCollection",
  "name": "green_space_design",
  "features": [
    {
      "type": "Feature",
      "id": "GREEN-001",
      "properties": {
        "id": "GREEN-001",
        "layer": "GREEN_SPACE",
        "source_type": "agent_generated_design",
        "confidence": "medium",
        "geometry_role": "design_proposal",
        "land_use_code": "1401",
        "name_zh": "京张遗址公园连续绿地（主轴）",
        "area_sqm_declared": 1410858.1
      },
      "geometry": {
        "type": "Polygon",
        "coordinates": [
          [
            [
              116.34688,
              39.953
            ],
            [
              116.34688,
              40.0125
            ],
            [
              116.34438,
              40.0125
            ],
            [
              116.34438,
              39.953
            ],
            [
              116.34688,
              39.953
            ]
          ]
        ]
      }
    },
    {
      "type": "Feature",
      "id": "GREEN-002",
      "properties": {
        "id": "GREEN-002",
        "layer": "GREEN_SPACE",
        "source_type": "agent_generated_design",
        "confidence": "medium",
        "geometry_role": "design_proposal",
        "land_use_code": "1401",
        "name_zh": "众智园中央生态绿廊",
        "area_sqm_declared": 153588.5
      },
      "geometry": {
        "type": "Polygon",
        "coordinates": [
          [
            [
              116.353,
              40.011
            ],
            [
              116.353,
              40.0128
            ],
            [
              116.344,
              40.0128
            ],
            [
              116.344,
              40.011
            ],
            [
              116.353,
              40.011
            ]
          ]
        ]
      }
    },
    {
      "type": "Feature",
      "id": "GREEN-003",
      "properties": {
        "id": "GREEN-003",
        "layer": "GREEN_SPACE",
        "source_type": "agent_generated_design",
        "confidence": "medium",
        "geometry_role": "design_proposal",
        "land_use_code": "1401",
        "name_zh": "原点社区口袋公园群",
        "area_sqm_declared": 118553.0
      },
      "geometry": {
        "type": "Polygon",
        "coordinates": [
          [
            [
              116.3495,
              39.984
            ],
            [
              116.3495,
              39.989
            ],
            [
              116.347,
              39.989
            ],
            [
              116.347,
              39.984
            ],
            [
              116.3495,
              39.984
            ]
          ]
        ]
      }
    },
    {
      "type": "Feature",
      "id": "GREEN-004",
      "properties": {
        "id": "GREEN-004",
        "layer": "GREEN_SPACE",
        "source_type": "agent_generated_design",
        "confidence": "medium",
        "geometry_role": "design_proposal",
        "land_use_code": "1401",
        "name_zh": "大钟寺产业绿轴",
        "area_sqm_declared": 71152.0
      },
      "geometry": {
        "type": "Polygon",
        "coordinates": [
          [
            [
              116.353,
              39.966
            ],
            [
              116.353,
              39.9675
            ],
            [
              116.348,
              39.9675
            ],
            [
              116.348,
              39.966
            ],
            [
              116.353,
              39.966
            ]
          ]
        ]
      }
    },
    {
      "type": "Feature",
      "id": "GREEN-005",
      "properties": {
        "id": "GREEN-005",
        "layer": "GREEN_SPACE",
        "source_type": "agent_generated_design",
        "confidence": "medium",
        "geometry_role": "design_proposal",
        "land_use_code": "1401",
        "name_zh": "小月河滨水生态缓冲带",
        "area_sqm_declared": 730319.0
      },
      "geometry": {
        "type": "Polygon",
        "coordinates": [
          [
            [
              116.343,
              39.945
            ],
            [
              116.344,
              39.945
            ],
            [
              116.344,
              40.022
            ],
            [
              116.343,
              40.022
            ],
            [
              116.343,
              39.945
            ]
          ]
        ]
      }
    }
  ]
}
