{
  "type": "FeatureCollection",
  "name": "phasing_scaffold",
  "features": [
    {
      "type": "Feature",
      "id": "PHASE-001",
      "properties": {
        "id": "PHASE-001",
        "layer": "PHASE",
        "source_type": "agent_generated_design",
        "confidence": "medium",
        "geometry_role": "design_proposal",
        "phase": "phase_1",
        "name_zh": "一期可讨论范围",
        "area_sqm_declared": 4587013.6
      },
      "geometry": {
        "type": "Polygon",
        "coordinates": [
          [
            [
              116.34218780487805,
              40.016
            ],
            [
              116.34843599999999,
              40.016
            ],
            [
              116.34843599999999,
              39.9495
            ],
            [
              116.340948,
              39.9495
            ],
            [
              116.340948,
              39.99434399999997
            ],
            [
              116.3417,
              40.006
            ],
            [
              116.34218780487805,
              40.016
            ]
          ]
        ]
      }
    },
    {
      "type": "Feature",
      "id": "PHASE-002",
      "properties": {
        "id": "PHASE-002",
        "layer": "PHASE",
        "source_type": "agent_generated_design",
        "confidence": "medium",
        "geometry_role": "design_proposal",
        "phase": "phase_2",
        "name_zh": "二期可讨论范围（AI原点社区）",
        "area_sqm_declared": 568730.1
      },
      "geometry": {
        "type": "Polygon",
        "coordinates": [
          [
            [
              116.343,
              40.006
            ],
            [
              116.349,
              40.026
            ],
            [
              116.343,
              40.026
            ],
            [
              116.343,
              40.006
            ]
          ]
        ]
      }
    },
    {
      "type": "Feature",
      "id": "PHASE-003",
      "properties": {
        "id": "PHASE-003",
        "layer": "PHASE",
        "source_type": "agent_generated_design",
        "confidence": "medium",
        "geometry_role": "design_proposal",
        "phase": "phase_3",
        "name_zh": "三期可讨论范围（大钟寺+小月河）",
        "area_sqm_declared": 3414892.7
      },
      "geometry": {
        "type": "Polygon",
        "coordinates": [
          [
            [
              116.343,
              39.99
            ],
            [
              116.355,
              39.99
            ],
            [
              116.355,
              39.96
            ],
            [
              116.343,
              39.96
            ],
            [
              116.343,
              39.99
            ]
          ]
        ]
      }
    }
  ]
}
