{
  "type": "FeatureCollection",
  "name": "public_space_design",
  "features": [
    {
      "type": "Feature",
      "id": "PUBLIC-001",
      "properties": {
        "id": "PUBLIC-001",
        "layer": "PUBLIC_SPACE",
        "source_type": "agent_generated_design",
        "confidence": "medium",
        "geometry_role": "design_proposal",
        "name_zh": "公共活动界面（遗址公园公共带）",
        "area_sqm_declared": 836345.6
      },
      "geometry": {
        "type": "Polygon",
        "coordinates": [
          [
            [
              116.349996,
              39.967
            ],
            [
              116.349996,
              40.00025
            ],
            [
              116.34734399999999,
              40.00025
            ],
            [
              116.34734399999999,
              39.967
            ],
            [
              116.349996,
              39.967
            ]
          ]
        ]
      }
    },
    {
      "type": "Feature",
      "id": "PUBLIC-002",
      "properties": {
        "id": "PUBLIC-002",
        "layer": "PUBLIC_SPACE",
        "source_type": "agent_generated_design",
        "confidence": "medium",
        "geometry_role": "design_proposal",
        "name_zh": "众智园开源广场",
        "area_sqm_declared": 35551.9
      },
      "geometry": {
        "type": "Polygon",
        "coordinates": [
          [
            [
              116.3505,
              40.013
            ],
            [
              116.3505,
              40.0145
            ],
            [
              116.348,
              40.0145
            ],
            [
              116.348,
              40.013
            ],
            [
              116.3505,
              40.013
            ]
          ]
        ]
      }
    },
    {
      "type": "Feature",
      "id": "PUBLIC-003",
      "properties": {
        "id": "PUBLIC-003",
        "layer": "PUBLIC_SPACE",
        "source_type": "agent_generated_design",
        "confidence": "medium",
        "geometry_role": "design_proposal",
        "name_zh": "原点社区创享广场",
        "area_sqm_declared": 47420.9
      },
      "geometry": {
        "type": "Polygon",
        "coordinates": [
          [
            [
              116.351,
              39.986
            ],
            [
              116.351,
              39.988
            ],
            [
              116.3485,
              39.988
            ],
            [
              116.3485,
              39.986
            ],
            [
              116.351,
              39.986
            ]
          ]
        ]
      }
    },
    {
      "type": "Feature",
      "id": "PUBLIC-004",
      "properties": {
        "id": "PUBLIC-004",
        "layer": "PUBLIC_SPACE",
        "source_type": "agent_generated_design",
        "confidence": "medium",
        "geometry_role": "design_proposal",
        "name_zh": "大钟寺AI展演广场",
        "area_sqm_declared": 35577.0
      },
      "geometry": {
        "type": "Polygon",
        "coordinates": [
          [
            [
              116.352,
              39.964
            ],
            [
              116.352,
              39.9655
            ],
            [
              116.3495,
              39.9655
            ],
            [
              116.3495,
              39.964
            ],
            [
              116.352,
              39.964
            ]
          ]
        ]
      }
    },
    {
      "type": "Feature",
      "id": "PUBLIC-005",
      "properties": {
        "id": "PUBLIC-005",
        "layer": "PUBLIC_SPACE",
        "source_type": "agent_generated_design",
        "confidence": "medium",
        "geometry_role": "design_proposal",
        "name_zh": "遗址公园活动节点群",
        "area_sqm_declared": 144176.2
      },
      "geometry": {
        "type": "Polygon",
        "coordinates": [
          [
            [
              116.3469,
              39.975
            ],
            [
              116.3469,
              39.983
            ],
            [
              116.345,
              39.983
            ],
            [
              116.345,
              39.975
            ],
            [
              116.3469,
              39.975
            ]
          ]
        ]
      }
    },
    {
      "type": "Feature",
      "id": "PUBLIC-006",
      "properties": {
        "id": "PUBLIC-006",
        "layer": "PUBLIC_SPACE",
        "source_type": "agent_generated_design",
        "confidence": "medium",
        "geometry_role": "design_proposal",
        "name_zh": "小月河社区客厅",
        "area_sqm_declared": 128030.1
      },
      "geometry": {
        "type": "Polygon",
        "coordinates": [
          [
            [
              116.342,
              39.986
            ],
            [
              116.3435,
              39.986
            ],
            [
              116.3435,
              39.995
            ],
            [
              116.342,
              39.995
            ],
            [
              116.342,
              39.986
            ]
          ]
        ]
      }
    }
  ]
}
