{
  "type": "FeatureCollection",
  "name": "roads_design",
  "features": [
    {
      "type": "Feature",
      "id": "ROAD-001",
      "properties": {
        "id": "ROAD-001",
        "layer": "ROAD_CENTERLINE",
        "source_type": "agent_generated_design",
        "confidence": "medium",
        "geometry_role": "design_proposal",
        "road_class": "greenway",
        "name_zh": "慢行与创新服务廊道（京张遗址公园主轴）"
      },
      "geometry": {
        "type": "LineString",
        "coordinates": [
          [
            116.340948,
            39.9845
          ],
          [
            116.35374,
            39.9845
          ]
        ]
      }
    },
    {
      "type": "Feature",
      "id": "ROAD-002",
      "properties": {
        "id": "ROAD-002",
        "layer": "ROAD_CENTERLINE",
        "source_type": "agent_generated_design",
        "confidence": "medium",
        "geometry_role": "design_proposal",
        "road_class": "cycleway",
        "name_zh": "清河滨水骑行道"
      },
      "geometry": {
        "type": "LineString",
        "coordinates": [
          [
            116.343,
            40.022
          ],
          [
            116.347,
            40.022
          ],
          [
            116.354,
            40.022
          ]
        ]
      }
    },
    {
      "type": "Feature",
      "id": "ROAD-003",
      "properties": {
        "id": "ROAD-003",
        "layer": "ROAD_CENTERLINE",
        "source_type": "agent_generated_design",
        "confidence": "medium",
        "geometry_role": "design_proposal",
        "road_class": "pedestrian",
        "name_zh": "原点社区近校步行街"
      },
      "geometry": {
        "type": "LineString",
        "coordinates": [
          [
            116.342,
            39.988
          ],
          [
            116.345,
            39.988
          ],
          [
            116.348,
            39.989
          ]
        ]
      }
    },
    {
      "type": "Feature",
      "id": "ROAD-004",
      "properties": {
        "id": "ROAD-004",
        "layer": "ROAD_CENTERLINE",
        "source_type": "agent_generated_design",
        "confidence": "medium",
        "geometry_role": "design_proposal",
        "road_class": "transit_connection",
        "name_zh": "大钟寺站接驳通道"
      },
      "geometry": {
        "type": "LineString",
        "coordinates": [
          [
            116.342,
            39.947
          ],
          [
            116.348,
            39.947
          ],
          [
            116.355,
            39.947
          ]
        ]
      }
    },
    {
      "type": "Feature",
      "id": "ROAD-005",
      "properties": {
        "id": "ROAD-005",
        "layer": "ROAD_CENTERLINE",
        "source_type": "agent_generated_design",
        "confidence": "medium",
        "geometry_role": "design_proposal",
        "road_class": "pedestrian",
        "name_zh": "全球AI活动周体验路线"
      },
      "geometry": {
        "type": "LineString",
        "coordinates": [
          [
            116.346,
            39.945
          ],
          [
            116.346,
            39.96
          ],
          [
            116.347,
            39.975
          ],
          [
            116.347,
            39.99
          ],
          [
            116.347,
            40.01
          ],
          [
            116.347,
            40.02
          ]
        ]
      }
    },
    {
      "type": "Feature",
      "id": "ROAD-006",
      "properties": {
        "id": "ROAD-006",
        "layer": "ROAD_CENTERLINE",
        "source_type": "agent_generated_design",
        "confidence": "medium",
        "geometry_role": "design_proposal",
        "road_class": "secondary",
        "name_zh": "学院路智慧慢行改进段"
      },
      "geometry": {
        "type": "LineString",
        "coordinates": [
          [
            116.353,
            40.025
          ],
          [
            116.353,
            39.96
          ]
        ]
      }
    },
    {
      "type": "Feature",
      "id": "ROAD-007",
      "properties": {
        "id": "ROAD-007",
        "layer": "ROAD_CENTERLINE",
        "source_type": "agent_generated_design",
        "confidence": "medium",
        "geometry_role": "design_proposal",
        "road_class": "branch",
        "name_zh": "众智园内部环线A"
      },
      "geometry": {
        "type": "LineString",
        "coordinates": [
          [
            116.344,
            40.009
          ],
          [
            116.354,
            40.009
          ],
          [
            116.354,
            40.024
          ],
          [
            116.344,
            40.024
          ],
          [
            116.344,
            40.009
          ]
        ]
      }
    },
    {
      "type": "Feature",
      "id": "ROAD-008",
      "properties": {
        "id": "ROAD-008",
        "layer": "ROAD_CENTERLINE",
        "source_type": "agent_generated_design",
        "confidence": "medium",
        "geometry_role": "design_proposal",
        "road_class": "branch",
        "name_zh": "原点社区步行优先街B"
      },
      "geometry": {
        "type": "LineString",
        "coordinates": [
          [
            116.341,
            39.98
          ],
          [
            116.349,
            39.98
          ]
        ]
      }
    },
    {
      "type": "Feature",
      "id": "ROAD-009",
      "properties": {
        "id": "ROAD-009",
        "layer": "ROAD_CENTERLINE",
        "source_type": "agent_generated_design",
        "confidence": "medium",
        "geometry_role": "design_proposal",
        "road_class": "cycleway",
        "name_zh": "清华园-五道口骑行连接"
      },
      "geometry": {
        "type": "LineString",
        "coordinates": [
          [
            116.342,
            39.99
          ],
          [
            116.349,
            39.99
          ]
        ]
      }
    },
    {
      "type": "Feature",
      "id": "ROAD-010",
      "properties": {
        "id": "ROAD-010",
        "layer": "ROAD_CENTERLINE",
        "source_type": "agent_generated_design",
        "confidence": "medium",
        "geometry_role": "design_proposal",
        "road_class": "pedestrian",
        "name_zh": "京张遗址公园南段慢行"
      },
      "geometry": {
        "type": "LineString",
        "coordinates": [
          [
            116.345,
            39.96
          ],
          [
            116.345,
            39.94
          ]
        ]
      }
    },
    {
      "type": "Feature",
      "id": "ROAD-011",
      "properties": {
        "id": "ROAD-011",
        "layer": "ROAD_CENTERLINE",
        "source_type": "agent_generated_design",
        "confidence": "medium",
        "geometry_role": "design_proposal",
        "road_class": "secondary",
        "name_zh": "大钟寺路AI接驳改进"
      },
      "geometry": {
        "type": "LineString",
        "coordinates": [
          [
            116.346,
            39.96
          ],
          [
            116.355,
            39.96
          ]
        ]
      }
    },
    {
      "type": "Feature",
      "id": "ROAD-012",
      "properties": {
        "id": "ROAD-012",
        "layer": "ROAD_CENTERLINE",
        "source_type": "agent_generated_design",
        "confidence": "medium",
        "geometry_role": "design_proposal",
        "road_class": "branch",
        "name_zh": "大钟寺内部联系路"
      },
      "geometry": {
        "type": "LineString",
        "coordinates": [
          [
            116.348,
            39.958
          ],
          [
            116.354,
            39.958
          ]
        ]
      }
    },
    {
      "type": "Feature",
      "id": "ROAD-013",
      "properties": {
        "id": "ROAD-013",
        "layer": "ROAD_CENTERLINE",
        "source_type": "agent_generated_design",
        "confidence": "medium",
        "geometry_role": "design_proposal",
        "road_class": "greenway",
        "name_zh": "小月河滨水绿道北段"
      },
      "geometry": {
        "type": "LineString",
        "coordinates": [
          [
            116.342,
            40.025
          ],
          [
            116.342,
            39.99
          ]
        ]
      }
    },
    {
      "type": "Feature",
      "id": "ROAD-014",
      "properties": {
        "id": "ROAD-014",
        "layer": "ROAD_CENTERLINE",
        "source_type": "agent_generated_design",
        "confidence": "medium",
        "geometry_role": "design_proposal",
        "road_class": "greenway",
        "name_zh": "小月河滨水绿道南段"
      },
      "geometry": {
        "type": "LineString",
        "coordinates": [
          [
            116.342,
            39.99
          ],
          [
            116.342,
            39.945
          ]
        ]
      }
    },
    {
      "type": "Feature",
      "id": "ROAD-015",
      "properties": {
        "id": "ROAD-015",
        "layer": "ROAD_CENTERLINE",
        "source_type": "agent_generated_design",
        "confidence": "medium",
        "geometry_role": "design_proposal",
        "road_class": "pedestrian",
        "name_zh": "原点社区-大钟寺步行桥"
      },
      "geometry": {
        "type": "LineString",
        "coordinates": [
          [
            116.35,
            39.975
          ],
          [
            116.35,
            39.96
          ]
        ]
      }
    },
    {
      "type": "Feature",
      "id": "ROAD-016",
      "properties": {
        "id": "ROAD-016",
        "layer": "ROAD_CENTERLINE",
        "source_type": "agent_generated_design",
        "confidence": "medium",
        "geometry_role": "design_proposal",
        "road_class": "transit_connection",
        "name_zh": "五道口站轨道接驳"
      },
      "geometry": {
        "type": "LineString",
        "coordinates": [
          [
            116.342,
            39.992
          ],
          [
            116.349,
            39.992
          ]
        ]
      }
    },
    {
      "type": "Feature",
      "id": "ROAD-017",
      "properties": {
        "id": "ROAD-017",
        "layer": "ROAD_CENTERLINE",
        "source_type": "agent_generated_design",
        "confidence": "medium",
        "geometry_role": "design_proposal",
        "road_class": "branch",
        "name_zh": "众智园-原点社区联系路"
      },
      "geometry": {
        "type": "LineString",
        "coordinates": [
          [
            116.346,
            40.005
          ],
          [
            116.346,
            39.98
          ]
        ]
      }
    },
    {
      "type": "Feature",
      "id": "ROAD-018",
      "properties": {
        "id": "ROAD-018",
        "layer": "ROAD_CENTERLINE",
        "source_type": "agent_generated_design",
        "confidence": "medium",
        "geometry_role": "design_proposal",
        "road_class": "cycleway",
        "name_zh": "学院路-遗址公园骑行廊道"
      },
      "geometry": {
        "type": "LineString",
        "coordinates": [
          [
            116.353,
            40.02
          ],
          [
            116.345,
            40.02
          ]
        ]
      }
    },
    {
      "type": "Feature",
      "id": "ROAD-019",
      "properties": {
        "id": "ROAD-019",
        "layer": "ROAD_CENTERLINE",
        "source_type": "agent_generated_design",
        "confidence": "medium",
        "geometry_role": "design_proposal",
        "road_class": "local_access",
        "name_zh": "大钟寺产业园出入路"
      },
      "geometry": {
        "type": "LineString",
        "coordinates": [
          [
            116.349,
            39.965
          ],
          [
            116.355,
            39.965
          ]
        ]
      }
    },
    {
      "type": "Feature",
      "id": "ROAD-020",
      "properties": {
        "id": "ROAD-020",
        "layer": "ROAD_CENTERLINE",
        "source_type": "agent_generated_design",
        "confidence": "medium",
        "geometry_role": "design_proposal",
        "road_class": "pedestrian",
        "name_zh": "全球AI活动周环线"
      },
      "geometry": {
        "type": "LineString",
        "coordinates": [
          [
            116.341,
            39.99
          ],
          [
            116.349,
            39.99
          ],
          [
            116.349,
            39.96
          ],
          [
            116.341,
            39.96
          ],
          [
            116.341,
            39.99
          ]
        ]
      }
    }
  ]
}
